0 H-2A DEB
1 43675U 18084E   22004.87222380  .00000852  00000-0  95449-4 0  9996
2 43675  97.9489 132.3358 0018905  71.8847 288.4427 14.89397632173127
0 KHALIFASAT
1 43676U 18084F   22005.41798225  .00000377  00000-0  45821-4 0  9995
2 43676  97.9277 130.5320 0017456  75.8608 284.4545 14.89232541173226
0 TEN-KOH
1 43677U 18084G   22005.11652485  .00000382  00000-0  44786-4 0  9995
2 43677  97.9424 133.9976 0017339  90.2752 270.0453 14.90652221173341
0 DIWATA 2B
1 43678U 18084H   22005.14585992  .00000515  00000-0  56712-4 0  9997
2 43678  97.9472 136.8017 0011272 102.1418 258.0984 14.91875687173502
0 STARS-AO
1 43679U 18084J   22005.34513475  .00000466  00000-0  50660-4 0  9998
2 43679  97.9515 138.5617 0010413 107.9239 252.3116 14.92812650173603
0 AUTCUBE 2
1 43681U 18084K   22005.30183846  .00000769  00000-0  80951-4 0  9994
2 43681  97.9477 137.3905 0010812 103.0913 257.1512 14.92327464173516
0 H-2A R/B
1 43682U 18084L   22004.83414748  .00001356  00000-0  10196-3 0  9996
2 43682  98.8604 304.3845 0057414  79.8716 280.8976 15.03470419174721
0 METOP-C
1 43689U 18087A   22005.42130044  .00000027  00000-0  32402-4 0  9995
2 43689  98.7091  67.8347 0003619 138.4377 221.7076 14.21487684164149
0 CICERO 10
1 43690U 18088A   22005.13754224  .00002139  00000-0  90979-4 0  9997
2 43690  85.0365  64.4964 0015408  37.1358 323.0947 15.22270166174876
0 NABEO/ELECTRON
1 43692U 18088C   22004.70981778  .00004247  00000-0  17373-3 0  9995
2 43692  85.0319  63.3962 0015712  17.6824 342.4963 15.23906821174869
0 IRVINE01
1 43693U 18088D   22004.89184163  .00007815  00000-0  27817-3 0  9997
2 43693  85.0320  60.7943 0014943   9.2548 350.8970 15.28666625175173
0 PROXIMA I
1 43694U 18088E   22004.61702057  .00002705  00000-0  10969-3 0  9999
2 43694  85.0304  61.9432 0018136   6.8731 353.2757 15.23978993175008
0 LEMUR 2 ZUPANSKI
1 43695U 18088F   22005.19036697  .00003033  00000-0  12169-3 0  9993
2 43695  85.0296  62.3104 0016353  27.9465 332.2653 15.24418068174977
0 PROXIMA II
1 43696U 18088G   22005.33813133  .00002323  00000-0  93948-4 0  9994
2 43696  85.0304  61.4776 0018075   4.1944 355.9447 15.23975449175104
0 LEMUR 2 CHANUSIAK
1 43697U 18088H   22005.38012782  .00003832  00000-0  15022-3 0  9993
2 43697  85.0357  62.2114 0014290   7.1483 352.9961 15.25317796175132
0 TIANZHI 1
1 43710U 18094A   22005.25066061  .00001315  00000-0  56376-4 0  9993
2 43710  97.4009  16.6700 0012686 205.3172 211.0788 15.24470438173948
0 SHIYAN 6 (SY-6)
1 43711U 18094B   22005.24685868  .00002104  00000-0  70927-4 0  9990
2 43711  97.4157  12.4870 0036018 346.2499  13.7757 15.31288917173622
0 TIANPING 1A
1 43712U 18094C   22005.13763522  .00002956  00000-0  11870-3 0  9999
2 43712  97.4006  17.1022 0012191 198.3392 227.2062 15.25690336173964
0 JIADING 1
1 43713U 18094D   22005.23667969  .00002425  00000-0  98453-4 0  9993
2 43713  97.4000  17.1875 0012938 204.1922 217.5698 15.25485820173977
0 TIANPING 1B
1 43714U 18094E   22005.13128420  .00001836  00000-0  76745-4 0  9992
2 43714  97.4012  16.7216 0011592 202.8195 225.6210 15.24832437173932
0 CZ-2D DEB
1 43715U 18094F   22004.54611883  .00008936  00000-0  25486-3 0  9990
2 43715  97.3449  20.0876 0016012 218.1668 141.8443 15.36162194174547
0 CZ-2D DEB
1 43716U 18094G   22004.87222951  .00007167  00000-0  21103-3 0  9998
2 43716  97.4558  40.7803 0029505 195.7814 164.2512 15.34934928174471
0 MOHAMMED VI-B
1 43717U 18095A   22005.47053147  .00000250  00000-0  42635-4 0  9996
2 43717  97.9444  80.0908 0001410  84.4768 275.6599 14.77086517168496
0 CZ-2D DEB
1 43718U 18094H   22004.60521738  .00010586  00000-0  27485-3 0  9994
2 43718  97.4425  44.4130 0020395 261.2276  98.6659 15.38948930174619
0 HYSIS
1 43719U 18096A   22005.41962732  .00000368  00000-0  57307-4 0  9994
2 43719  97.9813  73.1093 0002651  33.5718 326.5665 14.78693553167454
0 HSAT
1 43720U 18096B   22004.77835796  .00012554  00000-0  35499-3 0  9990
2 43720  97.3765  88.6728 0011248 269.6160  90.3795 15.36403135173083
0 FACSAT-1
1 43721U 18096C   22005.53706244  .00006560  00000-0  22233-3 0  9993
2 43721  97.3697  86.1591 0014128 274.4472 200.7559 15.30802788173018
0 CENTAURI 2
1 43722U 18096D   22004.78494075  .00007103  00000-0  22807-3 0  9997
2 43722  97.3725  86.7078 0013802 274.6360  85.3305 15.32521781172965
0 FLOCK 3R 9
1 43723U 18096E   22005.44244008  .00005322  00000-0  15854-3 0  9996
2 43723  97.3749  89.2877 0012820 267.8829 224.8464 15.35045777173180
0 FLOCK 3R 12
1 43724U 18096F   22004.76021134  .00007643  00000-0  22750-3 0  9995
2 43724  97.3745  88.6615 0013019 272.0995  87.8757 15.34918452173082
0 FLOCK 3R 11
1 43725U 18096G   22004.87683920  .00004581  00000-0  13811-3 0  9991
2 43725  97.3746  88.7752 0012926 268.4044  91.5718 15.34744375173100
0 FLOCK 3R 5
1 43726U 18096H   22004.75662812  .00010949  00000-0  31516-3 0  9993
2 43726  97.3757  89.0836 0012878 270.9406  89.0362 15.35861478173108
0 FLOCK 3R 8
1 43727U 18096J   22005.18216089  .00006500  00000-0  19485-3 0  9992
2 43727  97.3759  89.2991 0013165 268.9206  91.0529 15.34752980173159
0 3CAT-1
1 43728U 18096K   22005.48262604  .00008689  00000-0  27607-3 0  9995
2 43728  97.3743  88.0856 0013659 275.8469 206.9524 15.32788262173103
0 KEPLER-1 (CASE)
1 43729U 18096L   22005.15657519  .00006996  00000-0  21752-3 0  9997
2 43729  97.3746  88.2718 0014271 277.0079  82.9540 15.33550869173086
0 GLOBAL-1
1 43730U 18096M   22005.17777895  .00002619  00000-0  93835-4 0  9991
2 43730  97.3729  86.3559 0016834 283.4037  76.5327 15.29529938172969
0 LEMUR 2 ORZULAK
1 43731U 18096N   22005.18262042  .00007443  00000-0  22400-3 0  9995
2 43731  97.3782  89.4376 0016004 273.0252  86.9160 15.34535849173159
0 LEMUR 2 KOBYSZCZE
1 43732U 18096P   22005.14482253  .00006810  00000-0  20428-3 0  9995
2 43732  97.3797  89.7310 0015944 271.2238  88.7179 15.34677099173168
0 FLOCK 3R 4
1 43733U 18096Q   22005.48341731  .00012256  00000-0  36290-3 0  9993
2 43733  97.3738  89.7063 0015974 267.8718 156.8490 15.34898297173209
0 FLOCK 3R 3
1 43734U 18096R   22005.52149964  .00005277  00000-0  15808-3 0  9990
2 43734  97.3771  89.8333 0015759 271.1740 201.0001 15.34833582173210
0 FLOCK 3R 16
1 43735U 18096S   22005.22845547  .00010063  00000-0  28633-3 0  9997
2 43735  97.3747  90.0753 0015662 270.9913  88.9537 15.36207795173226
0 FLOCK 3R 15
1 43736U 18096T   22004.79421484  .00008563  00000-0  25722-3 0  9997
2 43736  97.3760  88.4736 0017024 278.9732  80.9584 15.34529040173069
0 CICERO 8
1 43737U 18096U   22005.14655306  .00004505  00000-0  13685-3 0  9997
2 43737  97.3734  89.7643 0017106 273.3940  86.5346 15.34456773173210
0 OBJECT V
1 43738U 18096V   22005.16025355  .00013656  00000-0  37406-3 0  9999
2 43738  97.3814  92.2715 0017534 268.7175 178.5848 15.37281969173341
0 PSLV R/B
1 43739U 18096W   22004.79694634  .00006195  00000-0  13326-3 0  9995
2 43739  97.3347  98.9922 0043037 277.4985  82.1375 15.44024060174317
0 FLOCK 3R 10
1 43740U 18096X   22005.46046279  .00009092  00000-0  26594-3 0  9998
2 43740  97.3745  89.3901 0012457 267.1091  92.8727 15.35419079173224
0 FLOCK 3R 6
1 43741U 18096Y   22005.20372492  .00005465  00000-0  16244-3 0  9991
2 43741  97.3741  89.2273 0012887 274.2206 137.8865 15.35102341173163
0 FLOCK 3R 7
1 43742U 18096Z   22005.13477301  .00017546  00000-0  51831-3 0  9993
2 43742  97.3764  89.1606 0012755 270.8052 156.5707 15.34935729173147
0 REAKTOR HELLO WORLD
1 43743U 18096AA  22004.83379058  .00003678  00000-0  12786-3 0  9997
2 43743  97.3699  85.7852 0014918 283.6215  76.3364 15.30272206172918
0 HIBER-1
1 43744U 18096AB  22004.92485604  .00007031  00000-0  22139-3 0  9993
2 43744  97.3744  87.6534 0013981 278.9609  81.0050 15.33146399173025
0 LEMUR 2 DULY
1 43745U 18096AC  22005.14503102  .00006882  00000-0  20734-3 0  9995
2 43745  97.3788  89.6442 0016091 271.0217  88.9182 15.34529204173177
0 LEMUR 2 VLADIMIR
1 43746U 18096AD  22004.76167449  .00009038  00000-0  26647-3 0  9998
2 43746  97.3786  89.5276 0015743 273.1589  86.7853 15.35123827173159
0 FLOCK 3R 1
1 43747U 18096AE  22004.77601201  .00008074  00000-0  24003-3 0  9992
2 43747  97.3772  89.1095 0015648 274.0200  85.9254 15.34899634173111
0 FLOCK 3R 2
1 43748U 18096AF  22004.76553126  .00012969  00000-0  35592-3 0  9997
2 43748  97.3787  90.2863 0014598 272.6644  87.2929 15.37283378173189
0 FLOCK 3R 14
1 43749U 18096AG  22004.80903205  .00013307  00000-0  34183-3 0  9992
2 43749  97.3824  91.8189 0014404 267.0635  92.8962 15.39320549173288
0 FLOCK 3R 13
1 43750U 18096AH  22005.15286378  .00011128  00000-0  29899-3 0  9995
2 43750  97.3756  91.2575 0014735 266.5519  93.4040 15.37978312173299
0 COSMOS 2530
1 43751U 18097A   22005.42054620 -.00000000  00000-0 -72942-4 0  9997
2 43751  82.5145 150.1563 0019052 341.5419  18.4976 12.42867165140666
0 COSMOS 2531
1 43752U 18097B   22005.44992290 -.00000006  00000-0 -11260-3 0  9995
2 43752  82.5176 150.5991 0016551 359.6267   0.4805 12.42870624140679
0 COSMOS 2532
1 43753U 18097C   22005.07591716 -.00000008  00000-0 -12825-3 0  9993
2 43753  82.5137 150.3588 0018007   2.8440 357.2735 12.42888066140624
0 BREEZE-KM R/B
1 43754U 18097D   22004.92202230  .00000026  00000-0  52254-4 0  9996
2 43754  82.5141  99.9957 0222936 144.9641 216.6361 12.80080747144604
0 OBJECT E
1 43755U 18097E   22005.27972329  .00000018  00000-0  21314-4 0  9993
2 43755  82.5144  98.8117 0217250 139.9978 221.7357 12.80833536144945
0 MINXSS-2
1 43758U 18099A   22004.80238244  .00001331  00000-0  12208-3 0  9997
2 43758  97.6462  76.6189 0016943  94.8914 265.4243 14.96436712168620
0 SIRION PATHFINDER-2
1 43759U 18099B   22004.83872413  .00000155  00000-0  18929-4 0  9993
2 43759  97.6430  75.7806 0015570  89.7602 270.5403 14.95770543168586
